[{"OBJECT_NAME":"STARLINK-5473","OBJECT_ID":"2023-021AM","EPOCH":"2026-03-18T10:14:26.985408","MEAN_MOTION":14.98587677,"ECCENTRICITY":0.0004925,"INCLINATION":69.9996,"RA_OF_ASC_NODE":142.4135,"ARG_OF_PERICENTER":254.7748,"MEAN_ANOMALY":105.2867,"EPHEMERIS_TYPE":0,"CLASSIFICATION_TYPE":"U","NORAD_CAT_ID":55663,"ELEMENT_SET_NO":999,"REV_AT_EPOCH":17058,"BSTAR":-0.0041481861,"MEAN_MOTION_DOT":-0.00049579,"MEAN_MOTION_DDOT":0},{"OBJECT_NAME":"STARLINK-5480","OBJECT_ID":"2023-021AN","EPOCH":"2026-03-17T15:25:47.071488","MEAN_MOTION":14.97686289,"ECCENTRICITY":0.00034208,"INCLINATION":69.9994,"RA_OF_ASC_NODE":144.4936,"ARG_OF_PERICENTER":234.7452,"MEAN_ANOMALY":125.3387,"EPHEMERIS_TYPE":0,"CLASSIFICATION_TYPE":"U","NORAD_CAT_ID":55664,"ELEMENT_SET_NO":999,"REV_AT_EPOCH":17047,"BSTAR":-0.0069830724,"MEAN_MOTION_DOT":-0.00081101,"MEAN_MOTION_DDOT":0},{"OBJECT_NAME":"STARLINK-5474","OBJECT_ID":"2023-021AP","EPOCH":"2026-03-18T14:56:52.523232","MEAN_MOTION":14.98330337,"ECCENTRICITY":0.0003808,"INCLINATION":69.9991,"RA_OF_ASC_NODE":141.8949,"ARG_OF_PERICENTER":269.7449,"MEAN_ANOMALY":90.3274,"EPHEMERIS_TYPE":0,"CLASSIFICATION_TYPE":"U","NORAD_CAT_ID":55665,"ELEMENT_SET_NO":999,"REV_AT_EPOCH":17061,"BSTAR":7.5386e-5,"MEAN_MOTION_DOT":8.07e-6,"MEAN_MOTION_DDOT":0},{"OBJECT_NAME":"STARLINK-5456","OBJECT_ID":"2023-021AR","EPOCH":"2026-03-18T21:03:21.909888","MEAN_MOTION":14.98330565,"ECCENTRICITY":0.00031622,"INCLINATION":69.9999,"RA_OF_ASC_NODE":141.1787,"ARG_OF_PERICENTER":270.8895,"MEAN_ANOMALY":89.1902,"EPHEMERIS_TYPE":0,"CLASSIFICATION_TYPE":"U","NORAD_CAT_ID":55667,"ELEMENT_SET_NO":999,"REV_AT_EPOCH":17066,"BSTAR":7.4160239e-5,"MEAN_MOTION_DOT":7.92e-6,"MEAN_MOTION_DDOT":0},{"OBJECT_NAME":"STARLINK-5455","OBJECT_ID":"2023-021AS","EPOCH":"2026-03-18T21:45:26.777088","MEAN_MOTION":14.98326842,"ECCENTRICITY":0.00033494,"INCLINATION":69.9993,"RA_OF_ASC_NODE":141.2792,"ARG_OF_PERICENTER":269.5349,"MEAN_ANOMALY":90.5427,"EPHEMERIS_TYPE":0,"CLASSIFICATION_TYPE":"U","NORAD_CAT_ID":55668,"ELEMENT_SET_NO":999,"REV_AT_EPOCH":17065,"BSTAR":-9.528954e-6,"MEAN_MOTION_DOT":-2.07e-6,"MEAN_MOTION_DDOT":0},{"OBJECT_NAME":"STARLINK-5459","OBJECT_ID":"2023-021AT","EPOCH":"2026-03-18T20:00:01.999872","MEAN_MOTION":14.98351732,"ECCENTRICITY":0.00034494,"INCLINATION":70.0008,"RA_OF_ASC_NODE":141.4135,"ARG_OF_PERICENTER":272.0884,"MEAN_ANOMALY":98.2724,"EPHEMERIS_TYPE":0,"CLASSIFICATION_TYPE":"U","NORAD_CAT_ID":55669,"ELEMENT_SET_NO":999,"REV_AT_EPOCH":565,"BSTAR":-0.0040027854,"MEAN_MOTION_DOT":-0.0004756,"MEAN_MOTION_DDOT":0},{"OBJECT_NAME":"STARLINK-5423","OBJECT_ID":"2023-021AU","EPOCH":"2026-03-18T21:15:23.326560","MEAN_MOTION":14.98333374,"ECCENTRICITY":0.00033014,"INCLINATION":70.0002,"RA_OF_ASC_NODE":141.204,"ARG_OF_PERICENTER":276.3722,"MEAN_ANOMALY":83.7061,"EPHEMERIS_TYPE":0,"CLASSIFICATION_TYPE":"U","NORAD_CAT_ID":55670,"ELEMENT_SET_NO":999,"REV_AT_EPOCH":17066,"BSTAR":-7.8169265e-5,"MEAN_MOTION_DOT":-1.026e-5,"MEAN_MOTION_DDOT":0},{"OBJECT_NAME":"STARLINK-5460","OBJECT_ID":"2023-021AV","EPOCH":"2026-03-18T11:08:48.048000","MEAN_MOTION":14.98330383,"ECCENTRICITY":0.00036802,"INCLINATION":69.9992,"RA_OF_ASC_NODE":142.5333,"ARG_OF_PERICENTER":270.21,"MEAN_ANOMALY":89.8638,"EPHEMERIS_TYPE":0,"CLASSIFICATION_TYPE":"U","NORAD_CAT_ID":55671,"ELEMENT_SET_NO":999,"REV_AT_EPOCH":17059,"BSTAR":5.3609516e-5,"MEAN_MOTION_DOT":5.47e-6,"MEAN_MOTION_DDOT":0},{"OBJECT_NAME":"STARLINK-5463","OBJECT_ID":"2023-021AX","EPOCH":"2026-03-18T21:09:22.618656","MEAN_MOTION":14.98332053,"ECCENTRICITY":0.00032734,"INCLINATION":69.9998,"RA_OF_ASC_NODE":141.1891,"ARG_OF_PERICENTER":276.0386,"MEAN_ANOMALY":84.04,"EPHEMERIS_TYPE":0,"CLASSIFICATION_TYPE":"U","NORAD_CAT_ID":55673,"ELEMENT_SET_NO":999,"REV_AT_EPOCH":17066,"BSTAR":-4.2858589e-5,"MEAN_MOTION_DOT":-6.04e-6,"MEAN_MOTION_DDOT":0},{"OBJECT_NAME":"STARLINK-5462","OBJECT_ID":"2023-021AY","EPOCH":"2026-03-18T00:00:02.000160","MEAN_MOTION":14.98300825,"ECCENTRICITY":0.00033522,"INCLINATION":70.0016,"RA_OF_ASC_NODE":143.3631,"ARG_OF_PERICENTER":266.0153,"MEAN_ANOMALY":65.706,"EPHEMERIS_TYPE":0,"CLASSIFICATION_TYPE":"U","NORAD_CAT_ID":55674,"ELEMENT_SET_NO":999,"REV_AT_EPOCH":581,"BSTAR":0.0049669631,"MEAN_MOTION_DOT":0.00059635,"MEAN_MOTION_DDOT":0},{"OBJECT_NAME":"STARLINK-5232","OBJECT_ID":"2023-021AZ","EPOCH":"2026-03-18T14:20:47.573376","MEAN_MOTION":14.98331889,"ECCENTRICITY":0.0003296,"INCLINATION":69.9997,"RA_OF_ASC_NODE":141.8077,"ARG_OF_PERICENTER":269.0408,"MEAN_ANOMALY":91.0374,"EPHEMERIS_TYPE":0,"CLASSIFICATION_TYPE":"U","NORAD_CAT_ID":55675,"ELEMENT_SET_NO":999,"REV_AT_EPOCH":17062,"BSTAR":5.6408e-5,"MEAN_MOTION_DOT":5.8e-6,"MEAN_MOTION_DDOT":0},{"OBJECT_NAME":"STARLINK-5300","OBJECT_ID":"2023-021BA","EPOCH":"2026-03-18T19:33:06.210144","MEAN_MOTION":14.98311523,"ECCENTRICITY":0.00032014,"INCLINATION":70.0001,"RA_OF_ASC_NODE":121.4875,"ARG_OF_PERICENTER":281.7518,"MEAN_ANOMALY":78.3282,"EPHEMERIS_TYPE":0,"CLASSIFICATION_TYPE":"U","NORAD_CAT_ID":55676,"ELEMENT_SET_NO":999,"REV_AT_EPOCH":17114,"BSTAR":-0.00064401813,"MEAN_MOTION_DOT":-7.765e-5,"MEAN_MOTION_DDOT":0},{"OBJECT_NAME":"STARLINK-5324","OBJECT_ID":"2023-021BB","EPOCH":"2026-03-18T12:50:21.211008","MEAN_MOTION":14.98328667,"ECCENTRICITY":0.00036106,"INCLINATION":69.9988,"RA_OF_ASC_NODE":122.1135,"ARG_OF_PERICENTER":270.6616,"MEAN_ANOMALY":89.4129,"EPHEMERIS_TYPE":0,"CLASSIFICATION_TYPE":"U","NORAD_CAT_ID":55677,"ELEMENT_SET_NO":999,"REV_AT_EPOCH":17110,"BSTAR":-5.037111e-6,"MEAN_MOTION_DOT":-1.53e-6,"MEAN_MOTION_DDOT":0},{"OBJECT_NAME":"STARLINK-5592","OBJECT_ID":"2023-028A","EPOCH":"2026-03-18T16:16:19.251840","MEAN_MOTION":14.98331555,"ECCENTRICITY":0.00032228,"INCLINATION":69.9999,"RA_OF_ASC_NODE":221.9065,"ARG_OF_PERICENTER":269.0621,"MEAN_ANOMALY":91.0169,"EPHEMERIS_TYPE":0,"CLASSIFICATION_TYPE":"U","NORAD_CAT_ID":55741,"ELEMENT_SET_NO":999,"REV_AT_EPOCH":16757,"BSTAR":3.5885504e-5,"MEAN_MOTION_DOT":3.35e-6,"MEAN_MOTION_DDOT":0},{"OBJECT_NAME":"STARLINK-5594","OBJECT_ID":"2023-028B","EPOCH":"2026-03-18T16:22:21.371520","MEAN_MOTION":14.98329471,"ECCENTRICITY":0.00025815,"INCLINATION":69.9978,"RA_OF_ASC_NODE":221.921,"ARG_OF_PERICENTER":270.0107,"MEAN_ANOMALY":90.0756,"EPHEMERIS_TYPE":0,"CLASSIFICATION_TYPE":"U","NORAD_CAT_ID":55742,"ELEMENT_SET_NO":999,"REV_AT_EPOCH":16738,"BSTAR":9.9238609e-5,"MEAN_MOTION_DOT":1.091e-5,"MEAN_MOTION_DDOT":0},{"OBJECT_NAME":"STARLINK-5602","OBJECT_ID":"2023-028C","EPOCH":"2026-03-18T16:28:20.509536","MEAN_MOTION":14.98331361,"ECCENTRICITY":0.00032678,"INCLINATION":69.9993,"RA_OF_ASC_NODE":221.9365,"ARG_OF_PERICENTER":269.3808,"MEAN_ANOMALY":90.6977,"EPHEMERIS_TYPE":0,"CLASSIFICATION_TYPE":"U","NORAD_CAT_ID":55743,"ELEMENT_SET_NO":999,"REV_AT_EPOCH":16738,"BSTAR":4.2084163e-5,"MEAN_MOTION_DOT":4.09e-6,"MEAN_MOTION_DDOT":0}]
