STARLINK-5473           
1 55663U 23021AM  26077.42670122 -.00049579  00000+0 -41482-2 0  9995
2 55663  69.9996 142.4135 0004925 254.7748 105.2867 14.98587677170584
STARLINK-5480           
1 55664U 23021AN  26076.64290592 -.00081101  00000+0 -69831-2 0  9993
2 55664  69.9994 144.4936 0003420 234.7452 125.3387 14.97686289170479
STARLINK-5474           
1 55665U 23021AP  26077.62283013  .00000807  00000+0  75386-4 0  9999
2 55665  69.9991 141.8949 0003808 269.7449  90.3274 14.98330337170619
STARLINK-5456           
1 55667U 23021AR  26077.87733692  .00000792  00000+0  74160-4 0  9993
2 55667  69.9999 141.1787 0003162 270.8895  89.1902 14.98330565170665
STARLINK-5455           
1 55668U 23021AS  26077.90655992 -.00000207  00000+0 -95290-5 0  9995
2 55668  69.9993 141.2792 0003349 269.5349  90.5427 14.98326842170653
STARLINK-5459           
1 55669U 23021AT  26077.83335648 -.00047560  00000+0 -40028-2 0  9990
2 55669  70.0008 141.4135 0003449 272.0884  98.2724 14.98351732  5659
STARLINK-5423           
1 55670U 23021AU  26077.88568665 -.00001026  00000+0 -78169-4 0  9990
2 55670  70.0002 141.2040 0003301 276.3722  83.7061 14.98333374170662
STARLINK-5460           
1 55671U 23021AV  26077.46444500  .00000547  00000+0  53610-4 0  9995
2 55671  69.9992 142.5333 0003680 270.2100  89.8638 14.98330383170596
STARLINK-5463           
1 55673U 23021AX  26077.88151179 -.00000604  00000+0 -42859-4 0  9999
2 55673  69.9998 141.1891 0003273 276.0386  84.0400 14.98332053170664
STARLINK-5462           
1 55674U 23021AY  26077.00002315  .00059635  00000+0  49670-2 0  9993
2 55674  70.0016 143.3631 0003352 266.0153  65.7060 14.98300825  5818
STARLINK-5232           
1 55675U 23021AZ  26077.59777284  .00000580  00000+0  56408-4 0  9996
2 55675  69.9997 141.8077 0003296 269.0408  91.0374 14.98331889170620
STARLINK-5300           
1 55676U 23021BA  26077.81465521 -.00007765  00000+0 -64402-3 0  9996
2 55676  70.0001 121.4875 0003201 281.7518  78.3282 14.98311523171146
STARLINK-5324           
1 55677U 23021BB  26077.53496772 -.00000153  00000+0 -50371-5 0  9994
2 55677  69.9988 122.1135 0003610 270.6616  89.4129 14.98328667171101
STARLINK-5592           
1 55741U 23028A   26077.67800060  .00000335  00000+0  35886-4 0  9990
2 55741  69.9999 221.9065 0003222 269.0621  91.0169 14.98331555167571
STARLINK-5594           
1 55742U 23028B   26077.68219180  .00001091  00000+0  99239-4 0  9991
2 55742  69.9978 221.9210 0002581 270.0107  90.0756 14.98329471167383
STARLINK-5602           
1 55743U 23028C   26077.68634849  .00000409  00000+0  42084-4 0  9993
2 55743  69.9993 221.9365 0003267 269.3808  90.6977 14.98331361167385
